<?xml version="1.0" encoding="UTF-8"?>
<gpx version="1.1" creator="BRP Trip Planner"
     xmlns="http://www.topografix.com/GPX/1/1"
     xmlns:xsi="http://www.w3.org/2001/XMLSchema-instance"
     xmlns:gpxx="http://www.garmin.com/xmlschemas/GpxExtensions/v3"
     xmlns:trp="http://www.garmin.com/xmlschemas/TripExtensions/v1"
     xsi:schemaLocation="http://www.topografix.com/GPX/1/1 http://www.topografix.com/GPX/1/1/gpx.xsd
       http://www.garmin.com/xmlschemas/GpxExtensions/v3 http://www8.garmin.com/xmlschemas/GpxExtensionsv3.xsd
       http://www.garmin.com/xmlschemas/TripExtensions/v1 http://www8.garmin.com/xmlschemas/TripExtensionsv1.xsd">
  <metadata><name>BRP D1 Asheville-Pisgah (waypoints)</name></metadata>
  <wpt lat="35.5870200" lon="-82.4879000">
    <name>FUEL US 70 Asheville Oteen</name>
    <sym>Flag, Green</sym>
    <type>user</type>
    <extensions>
      <gpxx:WaypointExtension xmlns:gpxx="http://www.garmin.com/xmlschemas/GpxExtensions/v3">
        <gpxx:DisplayMode>SymbolAndName</gpxx:DisplayMode>
      </gpxx:WaypointExtension>
    </extensions>
  </wpt>
  <wpt lat="35.5223800" lon="-82.6064700">
    <name>FUEL NC 191 Brevard Road</name>
    <sym>Gas Station</sym>
    <type>user</type>
    <extensions>
      <gpxx:WaypointExtension xmlns:gpxx="http://www.garmin.com/xmlschemas/GpxExtensions/v3">
        <gpxx:DisplayMode>SymbolAndName</gpxx:DisplayMode>
      </gpxx:WaypointExtension>
    </extensions>
  </wpt>
  <wpt lat="35.4048700" lon="-82.7567500">
    <name>Mount Pisgah Campground NPS</name>
    <sym>Campground</sym>
    <type>user</type>
    <extensions>
      <gpxx:WaypointExtension xmlns:gpxx="http://www.garmin.com/xmlschemas/GpxExtensions/v3">
        <gpxx:DisplayMode>SymbolAndName</gpxx:DisplayMode>
      </gpxx:WaypointExtension>
    </extensions>
  </wpt>
  <wpt lat="35.4688600" lon="-82.8781400">
    <name>FUEL US 276 Wagon Road Gap</name>
    <sym>Flag, Red</sym>
    <type>user</type>
    <extensions>
      <gpxx:WaypointExtension xmlns:gpxx="http://www.garmin.com/xmlschemas/GpxExtensions/v3">
        <gpxx:DisplayMode>SymbolAndName</gpxx:DisplayMode>
      </gpxx:WaypointExtension>
    </extensions>
  </wpt>
</gpx>
